{
"type": "FeatureCollection",
"name": "windsor",
"crs": { "type": "name", "properties": { "name": "urn:ogc:def:crs:OGC:1.3:CRS84" } },
"features": [
{ "type": "Feature", "properties": { "city": "windsor", "osm_relation": 7025718 }, "geometry": { "type": "Polygon", "coordinates": [ [ [ -83.1148496, 42.255921 ], [ -83.113881, 42.2571895 ], [ -83.1116269, 42.2601414 ], [ -83.0983808, 42.2867494 ], [ -83.0967741, 42.2899753 ], [ -83.0927159, 42.2943757 ], [ -83.0794903, 42.3087142 ], [ -83.0739929, 42.3118477 ], [ -83.0737907, 42.3119615 ], [ -83.06341, 42.3178047 ], [ -83.0518519, 42.3208218 ], [ -83.0333932, 42.3256399 ], [ -83.0278558, 42.3270852 ], [ -83.0190202, 42.3293886 ], [ -82.9887708, 42.3324477 ], [ -82.9818774, 42.3340742 ], [ -82.9591464, 42.3394373 ], [ -82.945376, 42.3469437 ], [ -82.9325755, 42.3498407 ], [ -82.9240754, 42.3517643 ], [ -82.901841, 42.3567913 ], [ -82.8967153, 42.3356182 ], [ -82.8963715, 42.3346783 ], [ -82.8963302, 42.3345171 ], [ -82.8963002, 42.3343282 ], [ -82.8962443, 42.3340861 ], [ -82.8961861, 42.3337631 ], [ -82.8961294, 42.3334935 ], [ -82.8961127, 42.3333408 ], [ -82.8960959, 42.3331879 ], [ -82.8960574, 42.3331166 ], [ -82.8960557, 42.3330625 ], [ -82.8960666, 42.3330173 ], [ -82.8960648, 42.3329544 ], [ -82.8960498, 42.3328645 ], [ -82.8960246, 42.3328288 ], [ -82.8959769, 42.3328036 ], [ -82.8959768, 42.3328027 ], [ -82.8959585, 42.3327347 ], [ -82.8959107, 42.3325468 ], [ -82.8958802, 42.3324286 ], [ -82.895833, 42.3322368 ], [ -82.8958325, 42.3322351 ], [ -82.8957902, 42.3320637 ], [ -82.8957475, 42.3318906 ], [ -82.8956989, 42.3316934 ], [ -82.8956986, 42.3316924 ], [ -82.8956502, 42.3314959 ], [ -82.895614, 42.331349 ], [ -82.8956097, 42.3313315 ], [ -82.8955955, 42.3312738 ], [ -82.8955617, 42.3311368 ], [ -82.8955517, 42.331096 ], [ -82.8955293, 42.3310048 ], [ -82.8955128, 42.3309379 ], [ -82.8954954, 42.3308675 ], [ -82.8954747, 42.3307837 ], [ -82.8954692, 42.3307615 ], [ -82.895462, 42.3307326 ], [ -82.895432, 42.3306101 ], [ -82.8954102, 42.3305222 ], [ -82.8953946, 42.3304586 ], [ -82.8953572, 42.3303072 ], [ -82.8953355, 42.3302196 ], [ -82.895298, 42.3300668 ], [ -82.8952977, 42.3300659 ], [ -82.8952724, 42.3299633 ], [ -82.8952432, 42.3298447 ], [ -82.8952197, 42.3297494 ], [ -82.89521, 42.3297099 ], [ -82.8951767, 42.3295748 ], [ -82.8951552, 42.3294878 ], [ -82.8951439, 42.3294419 ], [ -82.8951415, 42.3294321 ], [ -82.8951387, 42.3294209 ], [ -82.8951166, 42.3293308 ], [ -82.8951113, 42.3293092 ], [ -82.8951084, 42.3292975 ], [ -82.8951015, 42.3292694 ], [ -82.8950784, 42.3291763 ], [ -82.8950641, 42.329118 ], [ -82.8950587, 42.3290963 ], [ -82.8950458, 42.3290434 ], [ -82.895029, 42.3289751 ], [ -82.8950268, 42.3289665 ], [ -82.8950255, 42.3289612 ], [ -82.8949894, 42.3288152 ], [ -82.8949889, 42.3288133 ], [ -82.8949853, 42.3287989 ], [ -82.8949552, 42.3286761 ], [ -82.8949532, 42.3286681 ], [ -82.8949522, 42.3286637 ], [ -82.8949401, 42.3286147 ], [ -82.8949257, 42.3285563 ], [ -82.8949212, 42.3285382 ], [ -82.8949148, 42.3285123 ], [ -82.8948985, 42.3284462 ], [ -82.8948775, 42.3283609 ], [ -82.8948745, 42.3283482 ], [ -82.8948725, 42.3283402 ], [ -82.894864, 42.3283061 ], [ -82.8948401, 42.3282094 ], [ -82.8948365, 42.3281944 ], [ -82.8948029, 42.328058 ], [ -82.8948024, 42.3280559 ], [ -82.8948013, 42.3280517 ], [ -82.8947709, 42.3279281 ], [ -82.8947677, 42.3279156 ], [ -82.8947656, 42.3279067 ], [ -82.8947557, 42.3278665 ], [ -82.8947402, 42.3278037 ], [ -82.8947324, 42.3277721 ], [ -82.8947282, 42.3277551 ], [ -82.8947057, 42.3276636 ], [ -82.8946909, 42.3276037 ], [ -82.8946846, 42.3275784 ], [ -82.8946703, 42.3275202 ], [ -82.8946535, 42.3274522 ], [ -82.8946502, 42.3274388 ], [ -82.8946443, 42.327415 ], [ -82.8946295, 42.3273546 ], [ -82.8946164, 42.3273011 ], [ -82.8945497, 42.327031 ], [ -82.8945295, 42.326949 ], [ -82.8945196, 42.3269084 ], [ -82.8945112, 42.3268746 ], [ -82.8944955, 42.3268109 ], [ -82.8944891, 42.3267849 ], [ -82.8944726, 42.3267182 ], [ -82.8944396, 42.3265845 ], [ -82.8944341, 42.3265617 ], [ -82.8944136, 42.3264783 ], [ -82.894406, 42.3264475 ], [ -82.8943957, 42.3264054 ], [ -82.8943823, 42.326351 ], [ -82.8943601, 42.3262621 ], [ -82.8943486, 42.3262159 ], [ -82.8943324, 42.3261502 ], [ -82.8943235, 42.3261141 ], [ -82.8943155, 42.3260819 ], [ -82.894283, 42.3259506 ], [ -82.8942491, 42.3258133 ], [ -82.8942312, 42.3257411 ], [ -82.8942128, 42.3256671 ], [ -82.8941803, 42.3255351 ], [ -82.8941763, 42.3255196 ], [ -82.8941617, 42.3254603 ], [ -82.8941375, 42.3253624 ], [ -82.8940992, 42.3252076 ], [ -82.8940813, 42.3251359 ], [ -82.8940659, 42.325073 ], [ -82.8940649, 42.3250689 ], [ -82.8940324, 42.3249378 ], [ -82.8940132, 42.3248605 ], [ -82.8939991, 42.3248028 ], [ -82.8939973, 42.3247958 ], [ -82.8939661, 42.3246701 ], [ -82.893936, 42.3245484 ], [ -82.8939289, 42.3245195 ], [ -82.8939034, 42.3244163 ], [ -82.8938907, 42.3243657 ], [ -82.8938904, 42.3243646 ], [ -82.8938706, 42.3242844 ], [ -82.8938529, 42.3242127 ], [ -82.8938456, 42.3241832 ], [ -82.8938288, 42.3241157 ], [ -82.8938162, 42.3240641 ], [ -82.8938122, 42.3240482 ], [ -82.8937873, 42.3239474 ], [ -82.8937803, 42.3239189 ], [ -82.8937399, 42.3237552 ], [ -82.8937235, 42.3236895 ], [ -82.893718, 42.3236673 ], [ -82.8936971, 42.3235826 ], [ -82.8936919, 42.323562 ], [ -82.8936913, 42.32356 ], [ -82.893654, 42.3234093 ], [ -82.8935396, 42.3229469 ], [ -82.8935034, 42.3228001 ], [ -82.8933458, 42.3221641 ], [ -82.8932865, 42.3219248 ], [ -82.8932409, 42.3217407 ], [ -82.8932032, 42.321588 ], [ -82.8931719, 42.321462 ], [ -82.8931478, 42.3213647 ], [ -82.8930838, 42.3211066 ], [ -82.8930328, 42.3209007 ], [ -82.8930052, 42.3207894 ], [ -82.8929793, 42.3206852 ], [ -82.8929117, 42.320412 ], [ -82.8928632, 42.3202159 ], [ -82.8928286, 42.320076 ], [ -82.892708, 42.3195887 ], [ -82.892679, 42.3194723 ], [ -82.8925385, 42.3189042 ], [ -82.8924951, 42.3187293 ], [ -82.8924282, 42.3184588 ], [ -82.8924032, 42.3183575 ], [ -82.8923768, 42.318251 ], [ -82.8923131, 42.3179934 ], [ -82.8922633, 42.3177922 ], [ -82.8922312, 42.3176623 ], [ -82.8922114, 42.3175823 ], [ -82.892143, 42.3173061 ], [ -82.8921001, 42.317133 ], [ -82.8920603, 42.3169723 ], [ -82.8919928, 42.316699 ], [ -82.8919742, 42.3166243 ], [ -82.8919291, 42.3164425 ], [ -82.8918991, 42.3163215 ], [ -82.8918821, 42.3162529 ], [ -82.891875, 42.3162242 ], [ -82.8918621, 42.3161719 ], [ -82.8918259, 42.3160256 ], [ -82.8918242, 42.316019 ], [ -82.8911788, 42.3129871 ], [ -82.8911364, 42.312788 ], [ -82.8916396, 42.3128385 ], [ -82.8922194, 42.3129011 ], [ -82.8925095, 42.3129277 ], [ -82.8928375, 42.3129627 ], [ -82.8932039, 42.3130017 ], [ -82.8933792, 42.3130171 ], [ -82.8941268, 42.3130946 ], [ -82.8944932, 42.3131336 ], [ -82.8948822, 42.3131722 ], [ -82.8956071, 42.3132457 ], [ -82.8963545, 42.3133235 ], [ -82.8967285, 42.3133624 ], [ -82.8970947, 42.3134012 ], [ -82.897872, 42.3134785 ], [ -82.8977834, 42.3131155 ], [ -82.8976332, 42.3125 ], [ -82.8975551, 42.3121801 ], [ -82.897541, 42.3121222 ], [ -82.8975271, 42.3120649 ], [ -82.8975114, 42.3120004 ], [ -82.8974952, 42.3119344 ], [ -82.8974849, 42.311892 ], [ -82.8974778, 42.311863 ], [ -82.8974708, 42.3118343 ], [ -82.8973623, 42.3113919 ], [ -82.8972244, 42.3108293 ], [ -82.8972138, 42.3107862 ], [ -82.8972019, 42.3107383 ], [ -82.8971754, 42.3106303 ], [ -82.896568, 42.3081535 ], [ -82.896499, 42.3078728 ], [ -82.8964839, 42.3078108 ], [ -82.8964687, 42.3077492 ], [ -82.8964467, 42.3076597 ], [ -82.8964244, 42.3075685 ], [ -82.8964092, 42.3075065 ], [ -82.896394, 42.3074444 ], [ -82.8963788, 42.3073823 ], [ -82.8963635, 42.3073202 ], [ -82.8963482, 42.3072581 ], [ -82.896326, 42.307167 ], [ -82.8963039, 42.3070774 ], [ -82.8962887, 42.3070153 ], [ -82.8962243, 42.3067524 ], [ -82.8962009, 42.3066575 ], [ -82.8961447, 42.3064276 ], [ -82.8961293, 42.3063656 ], [ -82.8961141, 42.3063035 ], [ -82.8960919, 42.3062126 ], [ -82.8960696, 42.3061217 ], [ -82.8960543, 42.3060597 ], [ -82.8960391, 42.3059977 ], [ -82.8960238, 42.3059354 ], [ -82.8960087, 42.3058734 ], [ -82.8959934, 42.3058113 ], [ -82.8959499, 42.3056339 ], [ -82.8959196, 42.3055102 ], [ -82.8958385, 42.3051852 ], [ -82.8956775, 42.3045246 ], [ -82.895279, 42.3045831 ], [ -82.8951594, 42.3040392 ], [ -82.8951116, 42.3038217 ], [ -82.8950502, 42.3035423 ], [ -82.8953857, 42.3032441 ], [ -82.8962555, 42.3023112 ], [ -82.8964845, 42.3018165 ], [ -82.8968887, 42.3007427 ], [ -82.8972781, 42.2998357 ], [ -82.8977358, 42.2986079 ], [ -82.8977968, 42.2982826 ], [ -82.8978654, 42.2980112 ], [ -82.8978654, 42.2972682 ], [ -82.8980304, 42.2972014 ], [ -82.8975753, 42.2953383 ], [ -82.8972175, 42.2938937 ], [ -82.8968286, 42.2922507 ], [ -82.8965908, 42.2913174 ], [ -82.8959103, 42.2884939 ], [ -82.90043, 42.2885872 ], [ -82.9000068, 42.2867831 ], [ -82.9000062, 42.2867808 ], [ -82.9000183, 42.2867786 ], [ -82.9001839, 42.2867497 ], [ -82.9000003, 42.2859572 ], [ -82.8998961, 42.2855377 ], [ -82.8998852, 42.2854937 ], [ -82.8996307, 42.2844681 ], [ -82.8993748, 42.2834376 ], [ -82.8991192, 42.282407 ], [ -82.8988635, 42.2813765 ], [ -82.8988313, 42.2812488 ], [ -82.8985773, 42.2803302 ], [ -82.8977483, 42.2767898 ], [ -82.8976645, 42.2764416 ], [ -82.8979984, 42.2763792 ], [ -82.8977789, 42.2757791 ], [ -82.901894, 42.2749961 ], [ -82.902735, 42.2748728 ], [ -82.9033144, 42.2747574 ], [ -82.9048366, 42.2745055 ], [ -82.9037993, 42.2723469 ], [ -82.903587, 42.2723392 ], [ -82.9035931, 42.2722515 ], [ -82.9037113, 42.2707356 ], [ -82.9040127, 42.2668636 ], [ -82.9040147, 42.2668333 ], [ -82.9044235, 42.2614667 ], [ -82.9044254, 42.2614394 ], [ -82.90443, 42.2613763 ], [ -82.9043886, 42.2613749 ], [ -82.9043905, 42.2613475 ], [ -82.9043645, 42.2613467 ], [ -82.9043491, 42.2613461 ], [ -82.9043537, 42.2612831 ], [ -82.9043557, 42.2612557 ], [ -82.904495, 42.2594711 ], [ -82.9049631, 42.253477 ], [ -82.9049935, 42.2530745 ], [ -82.9051872, 42.250497 ], [ -82.9054019, 42.2476705 ], [ -82.9057536, 42.2420376 ], [ -82.9303283, 42.2426063 ], [ -82.9353573, 42.2428711 ], [ -82.935509, 42.2428791 ], [ -82.9426346, 42.2449425 ], [ -82.9526292, 42.2481229 ], [ -82.9534758, 42.2483111 ], [ -82.9543762, 42.2487506 ], [ -82.9554979, 42.2491817 ], [ -82.9567796, 42.2494076 ], [ -82.9584504, 42.2492889 ], [ -82.959091, 42.2492194 ], [ -82.9597398, 42.2499017 ], [ -82.9598136, 42.25 ], [ -82.9612579, 42.2519246 ], [ -82.9612427, 42.2516684 ], [ -82.9612273, 42.2514839 ], [ -82.9611434, 42.2502965 ], [ -82.9611283, 42.25 ], [ -82.9610977, 42.2495814 ], [ -82.9610931, 42.249508 ], [ -82.9610826, 42.2493432 ], [ -82.9610517, 42.2489517 ], [ -82.9609987, 42.2481646 ], [ -82.9609858, 42.2479703 ], [ -82.9609798, 42.2478804 ], [ -82.9609529, 42.2474721 ], [ -82.960945, 42.247337 ], [ -82.9630129, 42.2468153 ], [ -82.9630508, 42.2468057 ], [ -82.9633026, 42.246743 ], [ -82.9633407, 42.2467332 ], [ -82.9642715, 42.246501 ], [ -82.9649048, 42.2463373 ], [ -82.9670105, 42.2458102 ], [ -82.967079, 42.2457911 ], [ -82.9686507, 42.2453948 ], [ -82.9688032, 42.2453562 ], [ -82.9695282, 42.2451322 ], [ -82.9698563, 42.245014 ], [ -82.970543, 42.2447229 ], [ -82.9711916, 42.2443921 ], [ -82.971794, 42.244017 ], [ -82.9719317, 42.2439245 ], [ -82.9719849, 42.243892 ], [ -82.9727478, 42.2433746 ], [ -82.9730759, 42.2431574 ], [ -82.9737473, 42.2427045 ], [ -82.9739608, 42.2425658 ], [ -82.9749148, 42.2419281 ], [ -82.9749224, 42.241919 ], [ -82.9749758, 42.2418819 ], [ -82.9750807, 42.2418115 ], [ -82.9751895, 42.2417385 ], [ -82.9754029, 42.2415998 ], [ -82.9755935, 42.2414704 ], [ -82.975647, 42.2414335 ], [ -82.9768909, 42.2405971 ], [ -82.9782677, 42.2396751 ], [ -82.9818268, 42.2372923 ], [ -82.9822997, 42.2369735 ], [ -82.9836732, 42.2360536 ], [ -82.9849396, 42.2352032 ], [ -82.9850389, 42.235134 ], [ -82.9857253, 42.2346716 ], [ -82.9860658, 42.2345068 ], [ -82.9867859, 42.2341581 ], [ -82.9872513, 42.2342965 ], [ -82.9878005, 42.2344601 ], [ -82.9879621, 42.2345066 ], [ -82.9880219, 42.2345237 ], [ -82.9902342, 42.234427 ], [ -82.9904177, 42.2344193 ], [ -82.9907685, 42.2344853 ], [ -82.9909317, 42.2345163 ], [ -82.9919206, 42.2347039 ], [ -82.9925841, 42.2348634 ], [ -82.9930877, 42.2349807 ], [ -82.9934388, 42.2350647 ], [ -82.9960709, 42.2357034 ], [ -82.996338, 42.2357663 ], [ -82.9965059, 42.2358084 ], [ -82.9969407, 42.2359131 ], [ -82.9970422, 42.2359786 ], [ -82.9971009, 42.2359511 ], [ -82.9970933, 42.2361403 ], [ -82.9973373, 42.2361944 ], [ -82.9981004, 42.2363659 ], [ -82.9981079, 42.2363389 ], [ -82.9981075, 42.2363344 ], [ -83.0, 42.2370381 ], [ -83.0002822, 42.237143 ], [ -83.0013657, 42.2375473 ], [ -83.0018311, 42.2377192 ], [ -83.0021669, 42.237844 ], [ -83.0027084, 42.2380462 ], [ -83.0028762, 42.2381063 ], [ -83.0031586, 42.2382094 ], [ -83.0035857, 42.2383731 ], [ -83.0040206, 42.2385321 ], [ -83.0043107, 42.2386395 ], [ -83.004738, 42.2388032 ], [ -83.0051726, 42.2389623 ], [ -83.0054548, 42.2390698 ], [ -83.0055428, 42.2391019 ], [ -83.0058901, 42.2392288 ], [ -83.0061723, 42.2393366 ], [ -83.0064343, 42.239435 ], [ -83.006607, 42.2394999 ], [ -83.0070343, 42.2396591 ], [ -83.0072707, 42.239745 ], [ -83.0074999, 42.239831 ], [ -83.0077896, 42.2399385 ], [ -83.008087, 42.2400504 ], [ -83.0083923, 42.2401667 ], [ -83.0089188, 42.2403601 ], [ -83.0092622, 42.240489 ], [ -83.009598, 42.2406138 ], [ -83.0099257, 42.2407388 ], [ -83.0102537, 42.240859 ], [ -83.010582, 42.240984 ], [ -83.0109177, 42.241104 ], [ -83.0113105, 42.2412525 ], [ -83.0117034, 42.241401 ], [ -83.0125659, 42.2417236 ], [ -83.0139619, 42.2422438 ], [ -83.0143052, 42.2423684 ], [ -83.0183791, 42.2438908 ], [ -83.0185544, 42.2439552 ], [ -83.0189057, 42.2440886 ], [ -83.0190355, 42.2441359 ], [ -83.0191649, 42.2441877 ], [ -83.0193024, 42.2442346 ], [ -83.0194322, 42.2442865 ], [ -83.0195617, 42.2443337 ], [ -83.0196994, 42.2443853 ], [ -83.0199814, 42.2444885 ], [ -83.020111, 42.2445402 ], [ -83.0203936, 42.2446433 ], [ -83.0205231, 42.244695 ], [ -83.0206527, 42.2447423 ], [ -83.0207902, 42.2447939 ], [ -83.0209199, 42.244841 ], [ -83.0209589, 42.2448579 ], [ -83.0210039, 42.2448757 ], [ -83.0211104, 42.2449143 ], [ -83.0221936, 42.2453186 ], [ -83.0222399, 42.2452548 ], [ -83.023767, 42.2458244 ], [ -83.0242483, 42.2460081 ], [ -83.0244469, 42.2460815 ], [ -83.0245085, 42.2461041 ], [ -83.024797, 42.2462098 ], [ -83.0248181, 42.2462177 ], [ -83.0248727, 42.2462426 ], [ -83.0248947, 42.2462526 ], [ -83.0249919, 42.2462884 ], [ -83.0251159, 42.2463341 ], [ -83.0251579, 42.2463491 ], [ -83.0251999, 42.2463642 ], [ -83.0264054, 42.2468156 ], [ -83.026512, 42.2468544 ], [ -83.0266268, 42.2468975 ], [ -83.0272523, 42.2471294 ], [ -83.0273133, 42.2471554 ], [ -83.0274505, 42.247207 ], [ -83.0276795, 42.2472928 ], [ -83.027809, 42.2473403 ], [ -83.027939, 42.247392 ], [ -83.0281602, 42.2474737 ], [ -83.0288545, 42.2477315 ], [ -83.0293426, 42.2479165 ], [ -83.02948, 42.2479635 ], [ -83.0295564, 42.2479936 ], [ -83.0296324, 42.2480239 ], [ -83.0299303, 42.2481356 ], [ -83.0305176, 42.2483549 ], [ -83.0309145, 42.2485009 ], [ -83.0311355, 42.2485825 ], [ -83.03125, 42.2486301 ], [ -83.03138, 42.2486775 ], [ -83.0314142, 42.2486903 ], [ -83.0314486, 42.248703 ], [ -83.0314988, 42.2487219 ], [ -83.0315172, 42.2487289 ], [ -83.0316467, 42.2487763 ], [ -83.0317765, 42.2488279 ], [ -83.0319138, 42.2488751 ], [ -83.0319762, 42.2488998 ], [ -83.0320436, 42.2489267 ], [ -83.0320816, 42.2489396 ], [ -83.0322571, 42.249031 ], [ -83.0324554, 42.2491401 ], [ -83.0326537, 42.2492538 ], [ -83.0328216, 42.2493632 ], [ -83.0328901, 42.249408 ], [ -83.0329361, 42.2494378 ], [ -83.0330165, 42.2494928 ], [ -83.0331345, 42.2495738 ], [ -83.0332393, 42.249653 ], [ -83.0333557, 42.249741 ], [ -83.0335312, 42.249882 ], [ -83.0336381, 42.2499702 ], [ -83.0336705, 42.25 ], [ -83.0339169, 42.2503584 ], [ -83.0342352, 42.2508234 ], [ -83.0347424, 42.2515638 ], [ -83.0349077, 42.2518051 ], [ -83.0351692, 42.2522579 ], [ -83.0358462, 42.2522647 ], [ -83.0392003, 42.2523367 ], [ -83.0391906, 42.2521167 ], [ -83.0434328, 42.2522191 ], [ -83.0491346, 42.2523951 ], [ -83.0592495, 42.2527028 ], [ -83.0598228, 42.2527202 ], [ -83.0600037, 42.2527893 ], [ -83.0601984, 42.2528636 ], [ -83.0639351, 42.2537991 ], [ -83.070319, 42.2553974 ], [ -83.0718523, 42.2505087 ], [ -83.0718922, 42.250455 ], [ -83.0737943, 42.2514197 ], [ -83.0745118, 42.2517769 ], [ -83.0761395, 42.2525752 ], [ -83.0762194, 42.2526144 ], [ -83.076465, 42.2486681 ], [ -83.0765905, 42.2463116 ], [ -83.0766625, 42.2463294 ], [ -83.0766845, 42.2463348 ], [ -83.0785802, 42.2468094 ], [ -83.0814369, 42.2475245 ], [ -83.083445, 42.2480203 ], [ -83.0835493, 42.2480461 ], [ -83.0841036, 42.2481957 ], [ -83.0873248, 42.2490074 ], [ -83.090229, 42.2497338 ], [ -83.0903439, 42.2497665 ], [ -83.0903732, 42.2497739 ], [ -83.0905139, 42.2498097 ], [ -83.0909772, 42.2499275 ], [ -83.0914349, 42.2500448 ], [ -83.0914923, 42.2500592 ], [ -83.0919315, 42.250169 ], [ -83.0926476, 42.2503482 ], [ -83.0927459, 42.2503728 ], [ -83.0942939, 42.2507635 ], [ -83.095824, 42.2511496 ], [ -83.0965206, 42.2513254 ], [ -83.0974352, 42.2515524 ], [ -83.0990566, 42.2519617 ], [ -83.1010755, 42.2524712 ], [ -83.1016691, 42.2526205 ], [ -83.1024836, 42.2528254 ], [ -83.1025936, 42.2528593 ], [ -83.103351, 42.2530592 ], [ -83.106361, 42.2537895 ], [ -83.1148496, 42.255921 ] ] ] } }
]
}
